INTELSAT 18 (IS-18)     
1 37834U 11056A   26095.54906097  .00000054  00000+0  00000+0 0  9997
2 37834   0.0143 248.3145 0001789 125.0688 198.1193  1.00268501 53088
EUTELSAT 16A            
1 37836U 11057A   26095.53413832  .00000106  00000+0  00000+0 0  9997
2 37836   0.0598  17.9034 0005562   1.0307  23.1826  1.00273388  6600
VIASAT-1                
1 37843U 11059A   26095.55195407 -.00000022  00000+0  00000+0 0  9992
2 37843   0.0167 229.5457 0002391 152.7259 255.1841  1.00271533 46593
ASIASAT 7               
1 37933U 11069A   26095.57044708 -.00000332  00000+0  00000+0 0  9996
2 37933   0.0186 176.3102 0001777 201.7751 126.6439  1.00274221 44139
BEIDOU-2 IGSO-5         
1 37948U 11073A   26093.97039089 -.00000174  00000+0  00000+0 0  9999
2 37948  47.8149 272.4589 0109539 220.8427 142.8662  1.00265759 52398
LUCH-5A                 
1 37951U 11074B   26095.39926213 -.00000046  00000+0  00000+0 0  9994
2 37951   8.5697  74.8636 0003151 286.3176 143.1768  1.00271407 52323
NIGCOMSAT 1R            
1 38014U 11077A   26095.61458715  .00000147  00000+0  00000+0 0  9991
2 38014   0.0353 238.2272 0002878  98.3544 121.0776  1.00269372 52228
WGS F4 (USA 233)        
1 38070U 12003A   26095.55969931 -.00000213  00000+0  00000+0 0  9998
2 38070   0.0115 203.2517 0000427 180.7470  99.7485  1.00271636 43428
SES-4                   
1 38087U 12007A   26095.24144319 -.00000167  00000+0  00000+0 0  9999
2 38087   0.0268  65.5775 0002225 319.2817 233.6083  1.00270437 51499
BEIDOU-2 G5             
1 38091U 12008A   26095.61484973  .00000058  00000+0  00000+0 0  9997
2 38091   3.3934  70.1130 0013149 261.5870 142.3574  1.00276467 51649
MUOS-1                  
1 38093U 12009A   26095.44646721 -.00000125  00000+0  00000+0 0  9998
2 38093   5.3281  47.1834 0058939 359.8655 207.4797  1.00271569 51717
INTELSAT 22 (IS-22)     
1 38098U 12011A   26095.61741374 -.00000057  00000+0  00000+0 0  9999
2 38098   0.0098 123.8112 0001739 264.3040 100.1677  1.00271629  6460
APSTAR-7                
1 38107U 12013A   26095.61948708 -.00000100  00000+0  00000+0 0  9991
2 38107   0.0032 256.6779 0002859 137.3763  99.3760  1.00272219 51084
YAHSAT 1B               
1 38245U 12016A   26095.54046501  .00000128  00000+0  00000+0 0  9998
2 38245   0.0905  87.0539 0003045 290.6931  58.2465  1.00270556 44871
AEHF-2 (USA 235)        
1 38254U 12019A   26095.24256987 -.00000132  00000+0  00000+0 0  9995
2 38254   6.4824  58.0109 0002851 303.0108 263.3791  1.00271223  6254
JCSAT-13                
1 38331U 12023A   26095.58348302 -.00000355  00000+0  00000+0 0  9993
2 38331   0.0455  76.4482 0002723 330.0027 121.4748  1.00270169 50811
VINASAT-2               
1 38332U 12023B   26095.53655978 -.00000327  00000+0  00000+0 0  9998
2 38332   0.0394  47.0527 0002858 347.9095 123.8789  1.00272357 45938
