[{"OBJECT_NAME":"INTELSAT 18 (IS-18)","OBJECT_ID":"2011-056A","EPOCH":"2026-04-05T13:10:38.867808","MEAN_MOTION":1.00268501,"ECCENTRICITY":0.00017895,"INCLINATION":0.0143,"RA_OF_ASC_NODE":248.3145,"ARG_OF_PERICENTER":125.0688,"MEAN_ANOMALY":198.1193,"EPHEMERIS_TYPE":0,"CLASSIFICATION_TYPE":"U","NORAD_CAT_ID":37834,"ELEMENT_SET_NO":999,"REV_AT_EPOCH":5308,"BSTAR":0,"MEAN_MOTION_DOT":5.4e-7,"MEAN_MOTION_DDOT":0},{"OBJECT_NAME":"EUTELSAT 16A","OBJECT_ID":"2011-057A","EPOCH":"2026-04-05T12:49:09.550848","MEAN_MOTION":1.00273388,"ECCENTRICITY":0.00055626,"INCLINATION":0.0598,"RA_OF_ASC_NODE":17.9034,"ARG_OF_PERICENTER":1.0307,"MEAN_ANOMALY":23.1826,"EPHEMERIS_TYPE":0,"CLASSIFICATION_TYPE":"U","NORAD_CAT_ID":37836,"ELEMENT_SET_NO":999,"REV_AT_EPOCH":660,"BSTAR":0,"MEAN_MOTION_DOT":1.06e-6,"MEAN_MOTION_DDOT":0},{"OBJECT_NAME":"VIASAT-1","OBJECT_ID":"2011-059A","EPOCH":"2026-04-05T13:14:48.831648","MEAN_MOTION":1.00271533,"ECCENTRICITY":0.00023912,"INCLINATION":0.0167,"RA_OF_ASC_NODE":229.5457,"ARG_OF_PERICENTER":152.7259,"MEAN_ANOMALY":255.1841,"EPHEMERIS_TYPE":0,"CLASSIFICATION_TYPE":"U","NORAD_CAT_ID":37843,"ELEMENT_SET_NO":999,"REV_AT_EPOCH":4659,"BSTAR":0,"MEAN_MOTION_DOT":-2.2e-7,"MEAN_MOTION_DDOT":0},{"OBJECT_NAME":"ASIASAT 7","OBJECT_ID":"2011-069A","EPOCH":"2026-04-05T13:41:26.627712","MEAN_MOTION":1.00274221,"ECCENTRICITY":0.00017776,"INCLINATION":0.0186,"RA_OF_ASC_NODE":176.3102,"ARG_OF_PERICENTER":201.7751,"MEAN_ANOMALY":126.6439,"EPHEMERIS_TYPE":0,"CLASSIFICATION_TYPE":"U","NORAD_CAT_ID":37933,"ELEMENT_SET_NO":999,"REV_AT_EPOCH":4413,"BSTAR":0,"MEAN_MOTION_DOT":-3.32e-6,"MEAN_MOTION_DDOT":0},{"OBJECT_NAME":"BEIDOU-2 IGSO-5","OBJECT_ID":"2011-073A","EPOCH":"2026-04-03T23:17:21.772896","MEAN_MOTION":1.00265759,"ECCENTRICITY":0.01095393,"INCLINATION":47.8149,"RA_OF_ASC_NODE":272.4589,"ARG_OF_PERICENTER":220.8427,"MEAN_ANOMALY":142.8662,"EPHEMERIS_TYPE":0,"CLASSIFICATION_TYPE":"U","NORAD_CAT_ID":37948,"ELEMENT_SET_NO":999,"REV_AT_EPOCH":5239,"BSTAR":0,"MEAN_MOTION_DOT":-1.74e-6,"MEAN_MOTION_DDOT":0},{"OBJECT_NAME":"LUCH-5A","OBJECT_ID":"2011-074B","EPOCH":"2026-04-05T09:34:56.248032","MEAN_MOTION":1.00271407,"ECCENTRICITY":0.0003151,"INCLINATION":8.5697,"RA_OF_ASC_NODE":74.8636,"ARG_OF_PERICENTER":286.3176,"MEAN_ANOMALY":143.1768,"EPHEMERIS_TYPE":0,"CLASSIFICATION_TYPE":"U","NORAD_CAT_ID":37951,"ELEMENT_SET_NO":999,"REV_AT_EPOCH":5232,"BSTAR":0,"MEAN_MOTION_DOT":-4.6e-7,"MEAN_MOTION_DDOT":0},{"OBJECT_NAME":"NIGCOMSAT 1R","OBJECT_ID":"2011-077A","EPOCH":"2026-04-05T14:45:00.329760","MEAN_MOTION":1.00269372,"ECCENTRICITY":0.00028783,"INCLINATION":0.0353,"RA_OF_ASC_NODE":238.2272,"ARG_OF_PERICENTER":98.3544,"MEAN_ANOMALY":121.0776,"EPHEMERIS_TYPE":0,"CLASSIFICATION_TYPE":"U","NORAD_CAT_ID":38014,"ELEMENT_SET_NO":999,"REV_AT_EPOCH":5222,"BSTAR":0,"MEAN_MOTION_DOT":1.47e-6,"MEAN_MOTION_DDOT":0},{"OBJECT_NAME":"WGS F4 (USA 233)","OBJECT_ID":"2012-003A","EPOCH":"2026-04-05T13:25:58.020384","MEAN_MOTION":1.00271636,"ECCENTRICITY":4.278e-5,"INCLINATION":0.0115,"RA_OF_ASC_NODE":203.2517,"ARG_OF_PERICENTER":180.747,"MEAN_ANOMALY":99.7485,"EPHEMERIS_TYPE":0,"CLASSIFICATION_TYPE":"U","NORAD_CAT_ID":38070,"ELEMENT_SET_NO":999,"REV_AT_EPOCH":4342,"BSTAR":0,"MEAN_MOTION_DOT":-2.13e-6,"MEAN_MOTION_DDOT":0},{"OBJECT_NAME":"SES-4","OBJECT_ID":"2012-007A","EPOCH":"2026-04-05T05:47:40.691616","MEAN_MOTION":1.00270437,"ECCENTRICITY":0.0002225,"INCLINATION":0.0268,"RA_OF_ASC_NODE":65.5775,"ARG_OF_PERICENTER":319.2817,"MEAN_ANOMALY":233.6083,"EPHEMERIS_TYPE":0,"CLASSIFICATION_TYPE":"U","NORAD_CAT_ID":38087,"ELEMENT_SET_NO":999,"REV_AT_EPOCH":5149,"BSTAR":0,"MEAN_MOTION_DOT":-1.67e-6,"MEAN_MOTION_DDOT":0},{"OBJECT_NAME":"BEIDOU-2 G5","OBJECT_ID":"2012-008A","EPOCH":"2026-04-05T14:45:23.016672","MEAN_MOTION":1.00276467,"ECCENTRICITY":0.00131493,"INCLINATION":3.3934,"RA_OF_ASC_NODE":70.113,"ARG_OF_PERICENTER":261.587,"MEAN_ANOMALY":142.3574,"EPHEMERIS_TYPE":0,"CLASSIFICATION_TYPE":"U","NORAD_CAT_ID":38091,"ELEMENT_SET_NO":999,"REV_AT_EPOCH":5164,"BSTAR":0,"MEAN_MOTION_DOT":5.8e-7,"MEAN_MOTION_DDOT":0},{"OBJECT_NAME":"MUOS-1","OBJECT_ID":"2012-009A","EPOCH":"2026-04-05T10:42:54.766944","MEAN_MOTION":1.00271569,"ECCENTRICITY":0.00589396,"INCLINATION":5.3281,"RA_OF_ASC_NODE":47.1834,"ARG_OF_PERICENTER":359.8655,"MEAN_ANOMALY":207.4797,"EPHEMERIS_TYPE":0,"CLASSIFICATION_TYPE":"U","NORAD_CAT_ID":38093,"ELEMENT_SET_NO":999,"REV_AT_EPOCH":5171,"BSTAR":0,"MEAN_MOTION_DOT":-1.25e-6,"MEAN_MOTION_DDOT":0},{"OBJECT_NAME":"INTELSAT 22 (IS-22)","OBJECT_ID":"2012-011A","EPOCH":"2026-04-05T14:49:04.547136","MEAN_MOTION":1.00271629,"ECCENTRICITY":0.00017393,"INCLINATION":0.0098,"RA_OF_ASC_NODE":123.8112,"ARG_OF_PERICENTER":264.304,"MEAN_ANOMALY":100.1677,"EPHEMERIS_TYPE":0,"CLASSIFICATION_TYPE":"U","NORAD_CAT_ID":38098,"ELEMENT_SET_NO":999,"REV_AT_EPOCH":646,"BSTAR":0,"MEAN_MOTION_DOT":-5.7e-7,"MEAN_MOTION_DDOT":0},{"OBJECT_NAME":"APSTAR-7","OBJECT_ID":"2012-013A","EPOCH":"2026-04-05T14:52:03.683712","MEAN_MOTION":1.00272219,"ECCENTRICITY":0.00028594,"INCLINATION":0.0032,"RA_OF_ASC_NODE":256.6779,"ARG_OF_PERICENTER":137.3763,"MEAN_ANOMALY":99.376,"EPHEMERIS_TYPE":0,"CLASSIFICATION_TYPE":"U","NORAD_CAT_ID":38107,"ELEMENT_SET_NO":999,"REV_AT_EPOCH":5108,"BSTAR":0,"MEAN_MOTION_DOT":-1.0e-6,"MEAN_MOTION_DDOT":0},{"OBJECT_NAME":"YAHSAT 1B","OBJECT_ID":"2012-016A","EPOCH":"2026-04-05T12:58:16.176864","MEAN_MOTION":1.00270556,"ECCENTRICITY":0.00030457,"INCLINATION":0.0905,"RA_OF_ASC_NODE":87.0539,"ARG_OF_PERICENTER":290.6931,"MEAN_ANOMALY":58.2465,"EPHEMERIS_TYPE":0,"CLASSIFICATION_TYPE":"U","NORAD_CAT_ID":38245,"ELEMENT_SET_NO":999,"REV_AT_EPOCH":4487,"BSTAR":0,"MEAN_MOTION_DOT":1.28e-6,"MEAN_MOTION_DDOT":0},{"OBJECT_NAME":"AEHF-2 (USA 235)","OBJECT_ID":"2012-019A","EPOCH":"2026-04-05T05:49:18.036768","MEAN_MOTION":1.00271223,"ECCENTRICITY":0.0002851,"INCLINATION":6.4824,"RA_OF_ASC_NODE":58.0109,"ARG_OF_PERICENTER":303.0108,"MEAN_ANOMALY":263.3791,"EPHEMERIS_TYPE":0,"CLASSIFICATION_TYPE":"U","NORAD_CAT_ID":38254,"ELEMENT_SET_NO":999,"REV_AT_EPOCH":625,"BSTAR":0,"MEAN_MOTION_DOT":-1.32e-6,"MEAN_MOTION_DDOT":0},{"OBJECT_NAME":"JCSAT-13","OBJECT_ID":"2012-023A","EPOCH":"2026-04-05T14:00:12.932928","MEAN_MOTION":1.00270169,"ECCENTRICITY":0.00027237,"INCLINATION":0.0455,"RA_OF_ASC_NODE":76.4482,"ARG_OF_PERICENTER":330.0027,"MEAN_ANOMALY":121.4748,"EPHEMERIS_TYPE":0,"CLASSIFICATION_TYPE":"U","NORAD_CAT_ID":38331,"ELEMENT_SET_NO":999,"REV_AT_EPOCH":5081,"BSTAR":0,"MEAN_MOTION_DOT":-3.55e-6,"MEAN_MOTION_DDOT":0},{"OBJECT_NAME":"VINASAT-2","OBJECT_ID":"2012-023B","EPOCH":"2026-04-05T12:52:38.764992","MEAN_MOTION":1.00272357,"ECCENTRICITY":0.00028586,"INCLINATION":0.0394,"RA_OF_ASC_NODE":47.0527,"ARG_OF_PERICENTER":347.9095,"MEAN_ANOMALY":123.8789,"EPHEMERIS_TYPE":0,"CLASSIFICATION_TYPE":"U","NORAD_CAT_ID":38332,"ELEMENT_SET_NO":999,"REV_AT_EPOCH":4593,"BSTAR":0,"MEAN_MOTION_DOT":-3.27e-6,"MEAN_MOTION_DDOT":0}]
